ONEWEB-0473             
1 51653U 22012AH  26062.95670601  .00000381  00000+0  10537-2 0  9996
2 51653  87.8766  57.2332 0001708  86.9185 273.2138 13.10376272195529
ONEWEB-0474             
1 51654U 22012AJ  26062.94840329 -.00000047  00000+0 -16951-3 0  9990
2 51654  87.8777  57.2095 0001682  95.0305 265.1015 13.10376158195510
ONEWEB-0475             
1 51655U 22012AK  26062.82294925  .00000034  00000+0  54044-4 0  9993
2 51655  87.9140  26.7962 0001259  94.0767 266.0508 13.17648853199816
ONEWEB-0490             
1 54113U 22138A   26062.74923866  .00000128  00000+0  28831-3 0  9996
2 54113  87.9246 325.9669 0001700  86.3703 273.7624 13.19726109162927
ONEWEB-0492             
1 54114U 22138B   26062.77451129  .00000023  00000+0  23942-4 0  9991
2 54114  87.9239 325.9702 0001821  85.1486 274.9854 13.19725550162935
ONEWEB-0495             
1 54115U 22138C   26062.75239273  .00000094  00000+0  20322-3 0  9990
2 54115  87.9238 325.9761 0001644 104.4533 255.6782 13.19727223162914
ONEWEB-0497             
1 54116U 22138D   26062.76503147  .00000100  00000+0  21870-3 0  9993
2 54116  87.9240 325.9641 0001707  82.7854 277.3473 13.19725632162908
ONEWEB-0499             
1 54117U 22138E   26062.74844714  .00000130  00000+0  29257-3 0  9990
2 54117  87.9239 325.9773 0001497  80.3118 279.8184 13.19725530162910
ONEWEB-0500             
1 54118U 22138F   26062.75081413  .00000128  00000+0  28739-3 0  9992
2 54118  87.9240 325.9666 0001814  79.8743 280.2594 13.19726899162925
ONEWEB-0501             
1 54119U 22138G   26062.70501780  .00000020  00000+0  17899-4 0  9999
2 54119  87.9239 325.9765 0001577  92.4636 267.6677 13.19725626162896
ONEWEB-0502             
1 54120U 22138H   26062.76661197  .00000085  00000+0  17886-3 0  9992
2 54120  87.9246 325.9486 0001469  86.4315 273.6985 13.19725207162921
ONEWEB-0503             
1 54121U 22138J   26062.75555552  .00000117  00000+0  25880-3 0  9998
2 54121  87.9248 325.9548 0001511  72.9839 287.1459 13.19725959162911
ONEWEB-0504             
1 54122U 22138K   26062.74292505  .00000072  00000+0  14777-3 0  9997
2 54122  87.9243 325.9680 0001493  84.9639 275.1664 13.19726048162920
ONEWEB-0505             
1 54123U 22138L   26062.81557897  .00000067  00000+0  13450-3 0  9995
2 54123  87.9247 325.9496 0001465  96.5546 263.5754 13.19725650162913
ONEWEB-0506             
1 54124U 22138M   26062.79030872 -.00000035  00000+0 -11912-3 0  9990
2 54124  87.9249 325.9520 0001538  89.0931 271.0378 13.19726306162904
ONEWEB-0507             
1 54125U 22138N   26062.73501771  .00000098  00000+0  21217-3 0  9992
2 54125  87.9236 325.9851 0001667  86.5518 273.5805 13.19726926162948
ONEWEB-0508             
1 54126U 22138P   26062.73185244  .00000033  00000+0  50621-4 0  9997
2 54126  87.9240 325.9843 0001782  94.2870 265.8466 13.19723874162924
