[{"OBJECT_NAME":"ONEWEB-0473","OBJECT_ID":"2022-012AH","EPOCH":"2026-03-03T22:57:39.399264","MEAN_MOTION":13.10376272,"ECCENTRICITY":0.00017082,"INCLINATION":87.8766,"RA_OF_ASC_NODE":57.2332,"ARG_OF_PERICENTER":86.9185,"MEAN_ANOMALY":273.2138,"EPHEMERIS_TYPE":0,"CLASSIFICATION_TYPE":"U","NORAD_CAT_ID":51653,"ELEMENT_SET_NO":999,"REV_AT_EPOCH":19552,"BSTAR":0.0010537358,"MEAN_MOTION_DOT":3.81e-6,"MEAN_MOTION_DDOT":0},{"OBJECT_NAME":"ONEWEB-0474","OBJECT_ID":"2022-012AJ","EPOCH":"2026-03-03T22:45:42.044256","MEAN_MOTION":13.10376158,"ECCENTRICITY":0.00016822,"INCLINATION":87.8777,"RA_OF_ASC_NODE":57.2095,"ARG_OF_PERICENTER":95.0305,"MEAN_ANOMALY":265.1015,"EPHEMERIS_TYPE":0,"CLASSIFICATION_TYPE":"U","NORAD_CAT_ID":51654,"ELEMENT_SET_NO":999,"REV_AT_EPOCH":19551,"BSTAR":-0.00016951379,"MEAN_MOTION_DOT":-4.7e-7,"MEAN_MOTION_DDOT":0},{"OBJECT_NAME":"ONEWEB-0475","OBJECT_ID":"2022-012AK","EPOCH":"2026-03-03T19:45:02.815200","MEAN_MOTION":13.17648853,"ECCENTRICITY":0.00012597,"INCLINATION":87.914,"RA_OF_ASC_NODE":26.7962,"ARG_OF_PERICENTER":94.0767,"MEAN_ANOMALY":266.0508,"EPHEMERIS_TYPE":0,"CLASSIFICATION_TYPE":"U","NORAD_CAT_ID":51655,"ELEMENT_SET_NO":999,"REV_AT_EPOCH":19981,"BSTAR":5.404436e-5,"MEAN_MOTION_DOT":3.4e-7,"MEAN_MOTION_DDOT":0},{"OBJECT_NAME":"ONEWEB-0490","OBJECT_ID":"2022-138A","EPOCH":"2026-03-03T17:58:54.220224","MEAN_MOTION":13.19726109,"ECCENTRICITY":0.00017003,"INCLINATION":87.9246,"RA_OF_ASC_NODE":325.9669,"ARG_OF_PERICENTER":86.3703,"MEAN_ANOMALY":273.7624,"EPHEMERIS_TYPE":0,"CLASSIFICATION_TYPE":"U","NORAD_CAT_ID":54113,"ELEMENT_SET_NO":999,"REV_AT_EPOCH":16292,"BSTAR":0.00028830526,"MEAN_MOTION_DOT":1.28e-6,"MEAN_MOTION_DDOT":0},{"OBJECT_NAME":"ONEWEB-0492","OBJECT_ID":"2022-138B","EPOCH":"2026-03-03T18:35:17.775456","MEAN_MOTION":13.1972555,"ECCENTRICITY":0.00018211,"INCLINATION":87.9239,"RA_OF_ASC_NODE":325.9702,"ARG_OF_PERICENTER":85.1486,"MEAN_ANOMALY":274.9854,"EPHEMERIS_TYPE":0,"CLASSIFICATION_TYPE":"U","NORAD_CAT_ID":54114,"ELEMENT_SET_NO":999,"REV_AT_EPOCH":16293,"BSTAR":2.3941545e-5,"MEAN_MOTION_DOT":2.3e-7,"MEAN_MOTION_DDOT":0},{"OBJECT_NAME":"ONEWEB-0495","OBJECT_ID":"2022-138C","EPOCH":"2026-03-03T18:03:26.731872","MEAN_MOTION":13.19727223,"ECCENTRICITY":0.00016449,"INCLINATION":87.9238,"RA_OF_ASC_NODE":325.9761,"ARG_OF_PERICENTER":104.4533,"MEAN_ANOMALY":255.6782,"EPHEMERIS_TYPE":0,"CLASSIFICATION_TYPE":"U","NORAD_CAT_ID":54115,"ELEMENT_SET_NO":999,"REV_AT_EPOCH":16291,"BSTAR":0.00020322224,"MEAN_MOTION_DOT":9.4e-7,"MEAN_MOTION_DDOT":0},{"OBJECT_NAME":"ONEWEB-0497","OBJECT_ID":"2022-138D","EPOCH":"2026-03-03T18:21:38.719008","MEAN_MOTION":13.19725632,"ECCENTRICITY":0.00017072,"INCLINATION":87.924,"RA_OF_ASC_NODE":325.9641,"ARG_OF_PERICENTER":82.7854,"MEAN_ANOMALY":277.3473,"EPHEMERIS_TYPE":0,"CLASSIFICATION_TYPE":"U","NORAD_CAT_ID":54116,"ELEMENT_SET_NO":999,"REV_AT_EPOCH":16290,"BSTAR":0.00021870496,"MEAN_MOTION_DOT":1.0e-6,"MEAN_MOTION_DDOT":0},{"OBJECT_NAME":"ONEWEB-0499","OBJECT_ID":"2022-138E","EPOCH":"2026-03-03T17:57:45.832896","MEAN_MOTION":13.1972553,"ECCENTRICITY":0.00014973,"INCLINATION":87.9239,"RA_OF_ASC_NODE":325.9773,"ARG_OF_PERICENTER":80.3118,"MEAN_ANOMALY":279.8184,"EPHEMERIS_TYPE":0,"CLASSIFICATION_TYPE":"U","NORAD_CAT_ID":54117,"ELEMENT_SET_NO":999,"REV_AT_EPOCH":16291,"BSTAR":0.00029256977,"MEAN_MOTION_DOT":1.3e-6,"MEAN_MOTION_DDOT":0},{"OBJECT_NAME":"ONEWEB-0500","OBJECT_ID":"2022-138F","EPOCH":"2026-03-03T18:01:10.340832","MEAN_MOTION":13.19726899,"ECCENTRICITY":0.0001814,"INCLINATION":87.924,"RA_OF_ASC_NODE":325.9666,"ARG_OF_PERICENTER":79.8743,"MEAN_ANOMALY":280.2594,"EPHEMERIS_TYPE":0,"CLASSIFICATION_TYPE":"U","NORAD_CAT_ID":54118,"ELEMENT_SET_NO":999,"REV_AT_EPOCH":16292,"BSTAR":0.00028738744,"MEAN_MOTION_DOT":1.28e-6,"MEAN_MOTION_DDOT":0},{"OBJECT_NAME":"ONEWEB-0501","OBJECT_ID":"2022-138G","EPOCH":"2026-03-03T16:55:13.537920","MEAN_MOTION":13.19725626,"ECCENTRICITY":0.00015775,"INCLINATION":87.9239,"RA_OF_ASC_NODE":325.9765,"ARG_OF_PERICENTER":92.4636,"MEAN_ANOMALY":267.6677,"EPHEMERIS_TYPE":0,"CLASSIFICATION_TYPE":"U","NORAD_CAT_ID":54119,"ELEMENT_SET_NO":999,"REV_AT_EPOCH":16289,"BSTAR":1.7899234e-5,"MEAN_MOTION_DOT":2.0e-7,"MEAN_MOTION_DDOT":0},{"OBJECT_NAME":"ONEWEB-0502","OBJECT_ID":"2022-138H","EPOCH":"2026-03-03T18:23:55.274208","MEAN_MOTION":13.19725207,"ECCENTRICITY":0.00014694,"INCLINATION":87.9246,"RA_OF_ASC_NODE":325.9486,"ARG_OF_PERICENTER":86.4315,"MEAN_ANOMALY":273.6985,"EPHEMERIS_TYPE":0,"CLASSIFICATION_TYPE":"U","NORAD_CAT_ID":54120,"ELEMENT_SET_NO":999,"REV_AT_EPOCH":16292,"BSTAR":0.0001788606,"MEAN_MOTION_DOT":8.5e-7,"MEAN_MOTION_DDOT":0},{"OBJECT_NAME":"ONEWEB-0503","OBJECT_ID":"2022-138J","EPOCH":"2026-03-03T18:07:59.996928","MEAN_MOTION":13.19725959,"ECCENTRICITY":0.00015115,"INCLINATION":87.9248,"RA_OF_ASC_NODE":325.9548,"ARG_OF_PERICENTER":72.9839,"MEAN_ANOMALY":287.1459,"EPHEMERIS_TYPE":0,"CLASSIFICATION_TYPE":"U","NORAD_CAT_ID":54121,"ELEMENT_SET_NO":999,"REV_AT_EPOCH":16291,"BSTAR":0.00025879559,"MEAN_MOTION_DOT":1.17e-6,"MEAN_MOTION_DDOT":0},{"OBJECT_NAME":"ONEWEB-0504","OBJECT_ID":"2022-138K","EPOCH":"2026-03-03T17:49:48.724320","MEAN_MOTION":13.19726048,"ECCENTRICITY":0.00014937,"INCLINATION":87.9243,"RA_OF_ASC_NODE":325.968,"ARG_OF_PERICENTER":84.9639,"MEAN_ANOMALY":275.1664,"EPHEMERIS_TYPE":0,"CLASSIFICATION_TYPE":"U","NORAD_CAT_ID":54122,"ELEMENT_SET_NO":999,"REV_AT_EPOCH":16292,"BSTAR":0.00014776519,"MEAN_MOTION_DOT":7.2e-7,"MEAN_MOTION_DDOT":0},{"OBJECT_NAME":"ONEWEB-0505","OBJECT_ID":"2022-138L","EPOCH":"2026-03-03T19:34:26.023008","MEAN_MOTION":13.1972565,"ECCENTRICITY":0.00014651,"INCLINATION":87.9247,"RA_OF_ASC_NODE":325.9496,"ARG_OF_PERICENTER":96.5546,"MEAN_ANOMALY":263.5754,"EPHEMERIS_TYPE":0,"CLASSIFICATION_TYPE":"U","NORAD_CAT_ID":54123,"ELEMENT_SET_NO":999,"REV_AT_EPOCH":16291,"BSTAR":0.000134497,"MEAN_MOTION_DOT":6.7e-7,"MEAN_MOTION_DDOT":0},{"OBJECT_NAME":"ONEWEB-0506","OBJECT_ID":"2022-138M","EPOCH":"2026-03-03T18:58:02.673408","MEAN_MOTION":13.19726306,"ECCENTRICITY":0.00015389,"INCLINATION":87.9249,"RA_OF_ASC_NODE":325.952,"ARG_OF_PERICENTER":89.0931,"MEAN_ANOMALY":271.0378,"EPHEMERIS_TYPE":0,"CLASSIFICATION_TYPE":"U","NORAD_CAT_ID":54124,"ELEMENT_SET_NO":999,"REV_AT_EPOCH":16290,"BSTAR":-0.0001191248,"MEAN_MOTION_DOT":-3.5e-7,"MEAN_MOTION_DDOT":0},{"OBJECT_NAME":"ONEWEB-0507","OBJECT_ID":"2022-138N","EPOCH":"2026-03-03T17:38:25.530144","MEAN_MOTION":13.19726926,"ECCENTRICITY":0.00016673,"INCLINATION":87.9236,"RA_OF_ASC_NODE":325.9851,"ARG_OF_PERICENTER":86.5518,"MEAN_ANOMALY":273.5805,"EPHEMERIS_TYPE":0,"CLASSIFICATION_TYPE":"U","NORAD_CAT_ID":54125,"ELEMENT_SET_NO":999,"REV_AT_EPOCH":16294,"BSTAR":0.00021217055,"MEAN_MOTION_DOT":9.8e-7,"MEAN_MOTION_DDOT":0},{"OBJECT_NAME":"ONEWEB-0508","OBJECT_ID":"2022-138P","EPOCH":"2026-03-03T17:33:52.050816","MEAN_MOTION":13.19723874,"ECCENTRICITY":0.00017826,"INCLINATION":87.924,"RA_OF_ASC_NODE":325.9843,"ARG_OF_PERICENTER":94.287,"MEAN_ANOMALY":265.8466,"EPHEMERIS_TYPE":0,"CLASSIFICATION_TYPE":"U","NORAD_CAT_ID":54126,"ELEMENT_SET_NO":999,"REV_AT_EPOCH":16292,"BSTAR":5.0621478e-5,"MEAN_MOTION_DOT":3.3e-7,"MEAN_MOTION_DDOT":0}]
